OBJECT_NAME,OBJECT_ID,EPOCH,MEAN_MOTION,ECCENTRICITY,INCLINATION,RA_OF_ASC_NODE,ARG_OF_PERICENTER,MEAN_ANOMALY,EPHEMERIS_TYPE,CLASSIFICATION_TYPE,NORAD_CAT_ID,ELEMENT_SET_NO,REV_AT_EPOCH,BSTAR,MEAN_MOTION_DOT,MEAN_MOTION_DDOT
ONEWEB-0068,2020-020Y,2026-06-04T02:33:29.734560,13.11415057,.00018762,87.8907,23.6658,76.1752,283.9584,0,U,45446,999,30088,-.50773327E-3,-.167E-5,0
ONEWEB-0046,2020-020Z,2026-06-04T02:21:28.943424,13.11416488,.00020606,87.8901,23.6747,82.5464,277.5898,0,U,45447,999,30089,.80761339E-3,.299E-5,0
ONEWEB-0063,2020-020AA,2026-06-04T03:03:11.022624,13.11418844,.00020921,87.8907,23.6671,90.7285,269.4083,0,U,45448,999,30098,-.13557388E-2,-.468E-5,0
ONEWEB-0019,2020-020AB,2026-06-04T02:09:05.389344,13.11415785,.00016446,87.8901,23.6614,84.3213,275.8103,0,U,45449,999,30082,.13691459E-2,.498E-5,0
ONEWEB-0094,2020-020AC,2026-06-04T01:34:59.880576,13.17650468,.00016796,87.9154,8.4579,78.7041,281.4279,0,U,45450,999,30458,-.32820516E-4,0,0
ONEWEB-0087,2020-020AD,2026-06-04T01:27:33.962400,13.11418247,.00018607,87.8916,23.6532,73.3520,286.7813,0,U,45451,999,30086,-.50896789E-3,-.168E-5,0
ONEWEB-0082,2020-020AE,2026-06-04T01:22:42.104064,13.11418578,.00020866,87.8909,23.6714,74.3468,285.7890,0,U,45452,999,30095,-.10662175E-2,-.365E-5,0
ONEWEB-0050,2020-020AF,2026-06-03T15:31:06.839616,14.90320001,.00050809,88.9299,235.0483,55.5612,304.6097,0,U,45453,999,33836,.28398757E-3,.278E-4,0
ONEWEB-0034,2020-020AG,2026-06-04T02:14:20.949792,13.10933452,.00017716,87.8904,23.6736,85.0666,275.0664,0,U,45454,999,30087,.14132633E-2,.51E-5,0
ONEWEB-0060,2020-020AH,2026-06-04T03:01:45.157440,13.11417809,.00018551,87.8902,23.6656,53.0932,307.0366,0,U,45455,999,30083,-.15237171E-2,-.527E-5,0
ONEWEB-0086,2020-020AJ,2026-06-04T02:31:13.714176,13.11423922,.00013365,87.8921,23.6665,43.5537,316.5697,0,U,45456,999,30089,.25654927E-2,.922E-5,0
ONEWEB-0088,2020-020AK,2026-06-04T01:59:31.678656,13.11417134,.00022479,87.8919,23.6409,85.1549,274.9836,0,U,45457,999,30082,.15447716E-2,.56E-5,0
ONEWEB-0102,2020-100A,2026-06-04T00:30:29.203776,13.12442743,.00014706,87.8941,353.2947,88.0745,272.0552,0,U,47258,999,26300,-.12268145E-3,-.31E-6,0
ONEWEB-0109,2020-100B,2026-06-04T00:42:40.800960,13.12442532,.00017028,87.8950,353.2753,92.3931,267.7393,0,U,47259,999,26283,-.81651902E-3,-.281E-5,0
ONEWEB-0110,2020-100C,2026-06-04T01:21:43.031520,13.12445006,.00015792,87.8948,353.2540,80.4782,279.6525,0,U,47260,999,26300,-.13426453E-3,-.36E-6,0
ONEWEB-0111,2020-100D,2026-06-04T02:05:37.221504,13.12443204,.00017833,87.8952,353.2671,81.7044,278.4286,0,U,47261,999,26284,.72422815E-3,.273E-5,0
ONEWEB-0114,2020-100E,2026-06-04T02:49:31.994688,13.12444979,.00017941,87.8952,353.2577,102.1340,257.9989,0,U,47262,999,26280,-.12150565E-2,-.424E-5,0
ONEWEB-0117,2020-100F,2026-06-04T00:47:33.389376,13.12442029,.00017561,87.8949,353.2664,87.5133,272.6197,0,U,47263,999,26280,-.98416113E-3,-.341E-5,0
ONEWEB-0118,2020-100G,2026-06-04T01:36:21.081888,13.12444017,.00019981,87.8949,353.2623,95.6634,264.4722,0,U,47264,999,26300,.94845799E-3,.354E-5,0
ONEWEB-0119,2020-100H,2026-06-04T02:12:57.110688,13.12442538,.00016214,87.8938,353.2750,82.8912,277.2401,0,U,47265,999,26298,.1244531E-2,.46E-5,0
ONEWEB-0120,2020-100J,2026-06-04T02:47:18.149856,13.12444416,.00016368,87.8940,353.2711,96.3351,263.7964,0,U,47266,999,26301,-.11734436E-2,-.409E-5,0
ONEWEB-0121,2020-100K,2026-06-04T00:40:14.484288,13.12441884,.00018903,87.8952,353.2738,78.4200,281.7141,0,U,47267,999,26291,-.71744896E-3,-.245E-5,0
ONEWEB-0122,2020-100L,2026-06-04T02:21:29.690784,13.12440849,.0001517,87.8959,353.2651,93.8363,266.2939,0,U,47268,999,26283,-.14802342E-3,-.41E-6,0
ONEWEB-0123,2020-100M,2026-06-04T00:25:36.869376,13.12442645,.00018346,87.8942,353.2893,89.7977,270.3362,0,U,47269,999,26296,.30643126E-3,.123E-5,0
ONEWEB-0124,2020-100N,2026-06-04T02:00:45.803808,13.12442880,.00018461,87.8939,353.2785,86.0860,274.0479,0,U,47270,999,26285,.94311443E-3,.352E-5,0
ONEWEB-0125,2020-100P,2026-06-04T01:29:02.513760,13.12444591,.00021434,87.8954,353.2654,86.6977,273.4397,0,U,47271,999,26291,-.11289172E-3,-.28E-6,0
ONEWEB-0126,2020-100Q,2026-06-04T01:58:31.304928,13.12441755,.00017341,87.8947,353.2777,90.7451,269.3876,0,U,47272,999,26298,.10559697E-2,.393E-5,0
ONEWEB-0127,2020-100R,2026-06-04T01:09:30.731040,13.12443998,.0001726,87.8940,353.2838,89.1351,270.9976,0,U,47273,999,26300,-.82383105E-3,-.284E-5,0
ONEWEB-0128,2020-100S,2026-06-04T01:41:13.746336,13.12443205,.00015736,87.8940,353.2936,83.1746,276.9562,0,U,47274,999,26302,.10849983E-2,.403E-5,0
ONEWEB-0129,2020-100T,2026-06-04T01:11:56.989824,13.12443154,.00017884,87.8950,353.2699,125.4258,234.7038,0,U,47275,999,26295,-.79620951E-3,-.274E-5,0
